      2.10          N: GNSS NAV DATA                        RINEX VERSION / TYPE
fic2rin                                 08/10/2020 00:17:26 PGM / RUN BY / DATE
                                                            END OF HEADER
29 20  8 10  0  0  0.0-1.692883670330e-04-8.412825991400e-12 0.000000000000e+00
    3.300000000000e+01-1.928125000000e+01 3.729083902741e-09 2.484741464621e+00
   -8.996576070786e-07 1.625017030165e-03 8.437782526016e-06 5.153768806458e+03
    8.640000000000e+04-8.195638656616e-08 7.128143593735e-01 1.490116119385e-08
    9.855109381206e-01 2.305312500000e+02 2.151190359633e+00-7.660676240772e-09
   -9.000374901741e-11 1.000000000000e+00 2.118000000000e+03 0.000000000000e+00
    2.400000000000e+00 0.000000000000e+00-1.024454832077e-08 3.300000000000e+01
    7.920000000000e+04 4.000000000000e+00
27 20  8 10  0  0  0.0-3.672577440739e-04-9.322320693173e-12 0.000000000000e+00
    3.400000000000e+01-1.778125000000e+01 3.897305195548e-09 2.293601391144e+00
   -9.983777999878e-07 8.309189579450e-03 8.732080459595e-06 5.153671651840e+03
    8.640000000000e+04-1.508742570877e-07 6.420762430185e-01-5.401670932770e-08
    9.779082757478e-01 2.200625000000e+02 5.792813417359e-01-7.790324498285e-09
   -1.103617398666e-10 1.000000000000e+00 2.118000000000e+03 0.000000000000e+00
    2.400000000000e+00 0.000000000000e+00 1.862645149231e-09 3.400000000000e+01
    7.920000000000e+04 4.000000000000e+00
28 20  8 10  0  0  0.0 6.911214441061e-04-3.865352482535e-12 0.000000000000e+00
    2.700000000000e+01-1.281250000000e+00 4.185888644778e-09 3.062384196205e+00
    2.048909664154e-08 1.838235137984e-02 5.111098289490e-06 5.153662639618e+03
    8.640000000000e+04 1.825392246246e-07-3.107218587441e-01 5.774199962616e-08
    9.767511368054e-01 2.880937500000e+02-1.401711389146e+00-7.727107579332e-09
   -2.650110387735e-10 1.000000000000e+00 2.118000000000e+03 0.000000000000e+00
    2.400000000000e+00 0.000000000000e+00-1.117587089539e-08 2.700000000000e+01
    7.920000000000e+04 4.000000000000e+00
15 20  8 10  0  0  0.0-2.116910181940e-04 2.614797267597e-12 0.000000000000e+00
    8.100000000000e+01-4.225000000000e+01 5.464156175466e-09 1.451908462090e+00
   -2.069398760796e-06 1.255789760035e-02 9.521842002869e-06 5.153733289719e+03
    8.640000000000e+04-2.831220626831e-07-2.605886197917e+00 5.215406417847e-08
    9.285971620848e-01 1.840000000000e+02 9.019578305526e-01-8.566428254693e-09
   -2.071514858337e-10 1.000000000000e+00 2.118000000000e+03 0.000000000000e+00
    2.400000000000e+00 0.000000000000e+00-1.071020960808e-08 8.100000000000e+01
    7.920000000000e+04 4.000000000000e+00
31 20  8 10  0  0  0.0-6.116367876530e-05-2.501110429876e-12 0.000000000000e+00
    7.500000000000e+01 4.928125000000e+01 4.684837999450e-09-8.931225090174e-01
    2.561137080193e-06 9.570627240464e-03 7.648020982742e-06 5.153630161285e+03
    8.640000000000e+04 1.508742570877e-07-1.424641395335e+00-1.210719347000e-07
    9.568718824233e-01 2.310937500000e+02 1.444857404682e-01-8.149268021152e-09
    6.821712723145e-11 1.000000000000e+00 2.118000000000e+03 0.000000000000e+00
    2.400000000000e+00 0.000000000000e+00-1.303851604462e-08 7.500000000000e+01
    7.920000000000e+04 4.000000000000e+00
30 20  8 10  0  0  0.0-2.791527658701e-04-7.503331289627e-12 0.000000000000e+00
    7.600000000000e+01 6.334375000000e+01 5.130928009461e-09-6.197331566364e-01
    3.123655915260e-06 4.789252765477e-03 8.052214980125e-06 5.153609537125e+03
    8.640000000000e+04 1.098960638046e-07-1.418953888759e+00 3.539025783539e-08
    9.377600777913e-01 2.111562500000e+02-2.813890495502e+00-8.398564119621e-09
    5.643092200298e-11 1.000000000000e+00 2.118000000000e+03 0.000000000000e+00
    2.400000000000e+00 0.000000000000e+00 3.725290298462e-09 7.600000000000e+01
    7.920000000000e+04 4.000000000000e+00
19 20  8 10  0  0  0.0-1.205606386065e-04 5.115907697473e-12 0.000000000000e+00
    7.800000000000e+01-1.790625000000e+01 3.795515241302e-09-1.462411538031e+00
   -6.016343832016e-07 9.376805741340e-03 9.480863809586e-06 5.153698574066e+03
    8.640000000000e+04-5.029141902924e-08 7.464447935418e-01 1.899898052216e-07
    9.820496534642e-01 2.078437500000e+02 1.691358215973e+00-7.816039855147e-09
   -4.000166622996e-11 1.000000000000e+00 2.118000000000e+03 0.000000000000e+00
    2.400000000000e+00 0.000000000000e+00-1.536682248116e-08 7.800000000000e+01
    7.920000000000e+04 4.000000000000e+00
22 20  8 10  0  0  0.0-7.654568180442e-04 3.183231456205e-12 0.000000000000e+00
    6.600000000000e+01-3.050000000000e+01 5.568803391585e-09 1.349892807562e+00
   -1.603737473488e-06 6.856507621706e-03 4.921108484268e-06 5.153761713028e+03
    8.640000000000e+04 1.490116119385e-07 2.649238240595e+00-1.620501279831e-07
    9.317373596295e-01 2.718125000000e+02-1.106823367179e+00-8.605715605455e-09
    1.107188976008e-10 1.000000000000e+00 2.118000000000e+03 0.000000000000e+00
    2.400000000000e+00 0.000000000000e+00-1.816079020500e-08 6.600000000000e+01
    7.920000000000e+04 4.000000000000e+00
13 20  8 10  0  0  0.0 3.438955172896e-05 3.410605131648e-12 0.000000000000e+00
    6.100000000000e+01-1.803125000000e+01 4.427684430829e-09 1.641647291188e+00
   -9.108334779739e-07 4.327197209932e-03 1.034140586853e-05 5.153666057587e+03
    8.640000000000e+04-1.378357410431e-07-2.370429348731e+00-5.587935447693e-08
    9.679611949891e-01 1.841562500000e+02 1.048489325903e+00-7.921401386735e-09
   -1.007184810433e-10 1.000000000000e+00 2.118000000000e+03 0.000000000000e+00
    2.400000000000e+00 0.000000000000e+00-1.117587089539e-08 6.100000000000e+01
    7.920000000000e+04 4.000000000000e+00
25 20  8 10  0  0  0.0 3.345217555761e-05 4.774847184308e-12 0.000000000000e+00
    3.900000000000e+01 1.087500000000e+01 4.525545649999e-09-1.495820817021e+00
    5.681067705154e-07 9.083767305128e-03 5.135312676430e-06 5.153752506256e+03
    8.640000000000e+04 2.589076757431e-07-4.030836334798e-01 2.421438694000e-08
    9.647881168976e-01 2.833750000000e+02 9.389083060996e-01-8.117480982809e-09
   -2.296524230881e-10 1.000000000000e+00 2.118000000000e+03 0.000000000000e+00
    2.400000000000e+00 0.000000000000e+00 5.587935447693e-09 3.900000000000e+01
    7.920000000000e+04 4.000000000000e+00
32 20  8 10  0  0  0.0 3.302949480712e-04 5.570655048359e-12 0.000000000000e+00
    6.500000000000e+01-2.459375000000e+01 4.608049086598e-09 2.987572277246e+00
   -1.292675733566e-06 4.103506216779e-03 9.514391422272e-06 5.153746604919e+03
    8.640000000000e+04-7.823109626770e-08-2.505725998963e+00-6.705522537231e-08
    9.570698927741e-01 1.931250000000e+02-2.437830886882e+00-7.946402428129e-09
   -1.550064566411e-10 1.000000000000e+00 2.118000000000e+03 0.000000000000e+00
    2.400000000000e+00 0.000000000000e+00 4.656612873077e-10 6.500000000000e+01
    7.920000000000e+04 4.000000000000e+00
26 20  8 10  0  0  0.0 2.585602924228e-04 6.707523425575e-12 0.000000000000e+00
    3.800000000000e+01 9.687500000000e+00 4.958063666110e-09-2.075694918534e+00
    5.662441253662e-07 4.821274778806e-03 4.831701517105e-06 5.153658544540e+03
    8.640000000000e+04 1.862645149231e-09-4.397437446578e-01-2.793967723846e-08
    9.458075155365e-01 2.793750000000e+02 2.085252090662e-01-8.371777289556e-09
   -1.414344627416e-10 1.000000000000e+00 2.118000000000e+03 0.000000000000e+00
    2.400000000000e+00 0.000000000000e+00 6.984919309616e-09 3.800000000000e+01
    7.920000000000e+04 4.000000000000e+00
20 20  8 10  0  0  0.0 5.270801484585e-04-1.136868377216e-13 0.000000000000e+00
    8.100000000000e+01-2.353125000000e+01 5.404153676121e-09-3.658813063450e-01
   -1.249834895134e-06 5.429849843495e-03 5.213543772697e-06 5.153657720566e+03
    8.640000000000e+04 1.490116119385e-08 2.602031508257e+00-3.539025783539e-08
    9.350160721096e-01 2.643750000000e+02 2.688649446756e+00-8.638931274735e-09
    1.664355041354e-10 1.000000000000e+00 2.118000000000e+03 0.000000000000e+00
    2.400000000000e+00 0.000000000000e+00-8.847564458847e-09 8.100000000000e+01
    7.920000000000e+04 4.000000000000e+00
17 20  8 10  0  0  0.0 3.087054938078e-04 5.570655048359e-12 0.000000000000e+00
    1.040000000000e+02-3.050000000000e+01 3.663366879649e-09 2.214023511835e+00
   -1.551583409309e-06 1.330534613226e-02 9.210780262947e-06 5.153741201401e+03
    8.640000000000e+04 2.384185791016e-07 7.009297167647e-01-1.061707735062e-07
    9.838162674851e-01 2.093750000000e+02-1.639395828079e+00-7.521384724435e-09
   -1.060758470562e-10 1.000000000000e+00 2.118000000000e+03 0.000000000000e+00
    3.400000000000e+00 0.000000000000e+00-1.117587089539e-08 1.040000000000e+02
    7.920000000000e+04 4.000000000000e+00
23 20  8 10  0  0  0.0 3.442773595452e-05 1.193711796077e-11 0.000000000000e+00
    8.800000000000e+01-2.990625000000e+01 4.789485215569e-09 4.904503724495e-01
   -1.542270183563e-06 9.197809267789e-04 5.688518285751e-06 5.153632797241e+03
    8.640000000000e+04-1.303851604462e-08 2.713393481604e+00 6.146728992462e-08
    9.615017606706e-01 2.696875000000e+02 1.689090501308e+00-8.271773123981e-09
    9.143237995420e-11 1.000000000000e+00 2.118000000000e+03 0.000000000000e+00
    1.920000000000e+02 6.300000000000e+01-8.381903171539e-09 3.440000000000e+02
    7.920000000000e+04 4.000000000000e+00
21 20  8  9 23 59 28.0 3.382796421647e-05 4.433786671143e-12 0.000000000000e+00
    9.300000000000e+01 2.915625000000e+01 4.436970531918e-09-2.638235180216e+00
    1.518055796623e-06 2.378410776146e-02 6.953254342079e-06 5.155078100204e+03
    8.636800000000e+04 1.918524503708e-07 1.622122102479e+00 2.309679985046e-07
    9.537586932722e-01 2.318125000000e+02-1.303461149703e+00-7.728536210269e-09
    4.018024509706e-10 1.000000000000e+00 2.118000000000e+03 0.000000000000e+00
    2.400000000000e+00 0.000000000000e+00-1.024454832077e-08 9.300000000000e+01
    7.929000000000e+04 4.000000000000e+00
